[{"OBJECT_NAME":"ICEYE-X40","OBJECT_ID":"2024-149CK","EPOCH":"2026-03-09T18:13:16.348800","MEAN_MOTION":14.97556326,"ECCENTRICITY":0.00059832,"INCLINATION":97.6865,"RA_OF_ASC_NODE":146.8579,"ARG_OF_PERICENTER":65.2061,"MEAN_ANOMALY":294.9783,"EPHEMERIS_TYPE":0,"CLASSIFICATION_TYPE":"U","NORAD_CAT_ID":60549,"ELEMENT_SET_NO":999,"REV_AT_EPOCH":8519,"BSTAR":0.00028351559,"MEAN_MOTION_DOT":3.253e-5,"MEAN_MOTION_DDOT":0},{"OBJECT_NAME":"STARLINK-34033","OBJECT_ID":"2025-102Z","EPOCH":"2026-03-09T13:28:47.296128","MEAN_MOTION":14.9833278,"ECCENTRICITY":0.0003568,"INCLINATION":70.001,"RA_OF_ASC_NODE":114.7526,"ARG_OF_PERICENTER":269.7941,"MEAN_ANOMALY":90.2809,"EPHEMERIS_TYPE":0,"CLASSIFICATION_TYPE":"U","NORAD_CAT_ID":64045,"ELEMENT_SET_NO":999,"REV_AT_EPOCH":4586,"BSTAR":0.00028142,"MEAN_MOTION_DOT":3.267e-5,"MEAN_MOTION_DDOT":0}]
